QIANFAN-161             
1 69120U 26108S   26197.21242429  .00000022  00000+0  90425-5 0  9994
2 69120  89.0109  19.0799 0019145  25.5616 334.6491 13.75476940  8393
QIANFAN-162             
1 69121U 26108T   26197.21100057  .00000018  00000+0  61968-5 0  9990
2 69121  89.0103  19.0952 0019933  23.9630 336.2454 13.68857387  8377
QIANFAN-163             
1 69325U 26121A   26189.97247712  .00000008  00000+0 -66399-5 0  9998
2 69325  89.0049 298.3591 0020480 118.5630 241.7588 13.53894414  5116
QIANFAN-164             
1 69326U 26121B   26194.67164071  .00000062  00000+0  78132-4 0  9994
2 69326  89.0183 297.8725 0022845 112.6356 247.7213 13.49695561  5743
QIANFAN-165             
1 69382U 26124A   26197.22215042  .00000023  00000+0  78420-5 0  9996
2 69382  89.0003 358.7941 0006374  58.6279 301.5517 13.90609307  5908
QIANFAN-166             
1 69383U 26124B   26197.11422831  .00000013  00000+0 -88673-7 0  9994
2 69383  89.0004 358.7980 0005989  53.1872 306.9852 13.92879219  5895
QIANFAN-167             
1 69384U 26124C   26197.21789784  .00000023  00000+0  83273-5 0  9998
2 69384  89.0001 358.7945 0006573  70.4539 289.7343 13.89037992  5901
QIANFAN-168             
1 69385U 26124D   26197.18361112  .00000024  00000+0  87676-5 0  9998
2 69385  88.9994 358.7897 0008426  59.3246 300.8756 13.90062210  5903
QIANFAN-169             
1 69386U 26124E   26197.16700366  .00000024  00000+0  80522-5 0  9998
2 69386  88.9997 358.7856 0008652  68.8438 291.3660 13.91280866  5909
QIANFAN-170             
1 69387U 26124F   26197.21254506  .00000022  00000+0  65352-5 0  9997
2 69387  88.9998 358.7738 0007224  51.1019 309.0800 13.94176932  5919
QIANFAN-171             
1 69388U 26124G   26197.26898619  .00000019  00000+0  38392-5 0  9992
2 69388  89.0006 358.7644 0006121  78.4017 281.7845 13.94199795  5921
QIANFAN-172             
1 69389U 26124H   26197.27028601  .00000015  00000+0  11809-5 0  9990
2 69389  89.0001 358.7653 0006222  65.9529 294.2297 13.94966091  5929
QIANFAN-173             
1 69390U 26124J   26197.25368144  .00000027  00000+0  97730-5 0  9999
2 69390  89.0002 358.7622 0007147  60.1844 300.0042 13.95275533  5921
QIANFAN-174             
1 69391U 26124K   26197.29971942  .00000123  00000+0  76906-4 0  9998
2 69391  88.9999 358.7503 0007147  61.2377 298.9518 13.97969782  5927
QIANFAN-175             
1 69392U 26124L   26197.23377274 -.00000089  00000+0 -74841-4 0  9990
2 69392  89.0004 358.7589 0007475  67.9428 292.2542 13.96239529  5927
QIANFAN-176             
1 69393U 26124M   26196.94461553  .00000036  00000+0  17004-4 0  9990
2 69393  89.0003 358.7888 0007519  65.5381 294.6578 13.94771866  5872
