{"fetched_at":"2026-07-16T17:46:08.983Z","source":"https://celestrak.org/NORAD/elements/gp.php?GROUP=qianfan&FORMAT=JSON","constellation":"qianfan","records":[{"OBJECT_NAME":"QIANFAN-161","OBJECT_ID":"2026-108S","EPOCH":"2026-07-16T05:05:53.458656","CLASSIFICATION_TYPE":"U","MEAN_MOTION":13.7547694,"ECCENTRICITY":0.00191459,"INCLINATION":89.0109,"RA_OF_ASC_NODE":19.0799,"ARG_OF_PERICENTER":25.5616,"MEAN_ANOMALY":334.6491,"EPHEMERIS_TYPE":0,"NORAD_CAT_ID":69120,"ELEMENT_SET_NO":999,"REV_AT_EPOCH":839,"BSTAR":0.000009042522,"MEAN_MOTION_DOT":2.2e-7,"MEAN_MOTION_DDOT":0},{"OBJECT_NAME":"QIANFAN-162","OBJECT_ID":"2026-108T","EPOCH":"2026-07-16T05:03:50.449248","CLASSIFICATION_TYPE":"U","MEAN_MOTION":13.68857387,"ECCENTRICITY":0.00199331,"INCLINATION":89.0103,"RA_OF_ASC_NODE":19.0952,"ARG_OF_PERICENTER":23.963,"MEAN_ANOMALY":336.2454,"EPHEMERIS_TYPE":0,"NORAD_CAT_ID":69121,"ELEMENT_SET_NO":999,"REV_AT_EPOCH":837,"BSTAR":0.000006196765,"MEAN_MOTION_DOT":1.8e-7,"MEAN_MOTION_DDOT":0},{"OBJECT_NAME":"QIANFAN-163","OBJECT_ID":"2026-121A","EPOCH":"2026-07-08T23:20:22.023168","CLASSIFICATION_TYPE":"U","MEAN_MOTION":13.53894414,"ECCENTRICITY":0.00204807,"INCLINATION":89.0049,"RA_OF_ASC_NODE":298.3591,"ARG_OF_PERICENTER":118.563,"MEAN_ANOMALY":241.7588,"EPHEMERIS_TYPE":0,"NORAD_CAT_ID":69325,"ELEMENT_SET_NO":999,"REV_AT_EPOCH":511,"BSTAR":-0.000006639878,"MEAN_MOTION_DOT":8e-8,"MEAN_MOTION_DDOT":0},{"OBJECT_NAME":"QIANFAN-164","OBJECT_ID":"2026-121B","EPOCH":"2026-07-13T16:07:09.757344","CLASSIFICATION_TYPE":"U","MEAN_MOTION":13.49695561,"ECCENTRICITY":0.00228451,"INCLINATION":89.0183,"RA_OF_ASC_NODE":297.8725,"ARG_OF_PERICENTER":112.6356,"MEAN_ANOMALY":247.7213,"EPHEMERIS_TYPE":0,"NORAD_CAT_ID":69326,"ELEMENT_SET_NO":999,"REV_AT_EPOCH":574,"BSTAR":0.000078131509,"MEAN_MOTION_DOT":6.2e-7,"MEAN_MOTION_DDOT":0},{"OBJECT_NAME":"QIANFAN-165","OBJECT_ID":"2026-124A","EPOCH":"2026-07-16T05:19:53.796288","CLASSIFICATION_TYPE":"U","MEAN_MOTION":13.90609307,"ECCENTRICITY":0.00063744,"INCLINATION":89.0003,"RA_OF_ASC_NODE":358.7941,"ARG_OF_PERICENTER":58.6279,"MEAN_ANOMALY":301.5517,"EPHEMERIS_TYPE":0,"NORAD_CAT_ID":69382,"ELEMENT_SET_NO":999,"REV_AT_EPOCH":590,"BSTAR":0.000007841978,"MEAN_MOTION_DOT":2.3e-7,"MEAN_MOTION_DDOT":0},{"OBJECT_NAME":"QIANFAN-166","OBJECT_ID":"2026-124B","EPOCH":"2026-07-16T02:44:29.325984","CLASSIFICATION_TYPE":"U","MEAN_MOTION":13.92879219,"ECCENTRICITY":0.00059895,"INCLINATION":89.0004,"RA_OF_ASC_NODE":358.798,"ARG_OF_PERICENTER":53.1872,"MEAN_ANOMALY":306.9852,"EPHEMERIS_TYPE":0,"NORAD_CAT_ID":69383,"ELEMENT_SET_NO":999,"REV_AT_EPOCH":589,"BSTAR":-8.8673e-8,"MEAN_MOTION_DOT":1.3e-7,"MEAN_MOTION_DDOT":0},{"OBJECT_NAME":"QIANFAN-167","OBJECT_ID":"2026-124C","EPOCH":"2026-07-16T05:13:46.373376","CLASSIFICATION_TYPE":"U","MEAN_MOTION":13.89037992,"ECCENTRICITY":0.0006573,"INCLINATION":89.0001,"RA_OF_ASC_NODE":358.7945,"ARG_OF_PERICENTER":70.4539,"MEAN_ANOMALY":289.7343,"EPHEMERIS_TYPE":0,"NORAD_CAT_ID":69384,"ELEMENT_SET_NO":999,"REV_AT_EPOCH":590,"BSTAR":0.000008327294,"MEAN_MOTION_DOT":2.3e-7,"MEAN_MOTION_DDOT":0},{"OBJECT_NAME":"QIANFAN-168","OBJECT_ID":"2026-124D","EPOCH":"2026-07-16T04:24:24.000768","CLASSIFICATION_TYPE":"U","MEAN_MOTION":13.9006221,"ECCENTRICITY":0.0008426,"INCLINATION":88.9994,"RA_OF_ASC_NODE":358.7897,"ARG_OF_PERICENTER":59.3246,"MEAN_ANOMALY":300.8756,"EPHEMERIS_TYPE":0,"NORAD_CAT_ID":69385,"ELEMENT_SET_NO":999,"REV_AT_EPOCH":590,"BSTAR":0.000008767627,"MEAN_MOTION_DOT":2.4e-7,"MEAN_MOTION_DDOT":0},{"OBJECT_NAME":"QIANFAN-169","OBJECT_ID":"2026-124E","EPOCH":"2026-07-16T04:00:29.116224","CLASSIFICATION_TYPE":"U","MEAN_MOTION":13.91280866,"ECCENTRICITY":0.00086527,"INCLINATION":88.9997,"RA_OF_ASC_NODE":358.7856,"ARG_OF_PERICENTER":68.8438,"MEAN_ANOMALY":291.366,"EPHEMERIS_TYPE":0,"NORAD_CAT_ID":69386,"ELEMENT_SET_NO":999,"REV_AT_EPOCH":590,"BSTAR":0.00000805221,"MEAN_MOTION_DOT":2.4e-7,"MEAN_MOTION_DDOT":0},{"OBJECT_NAME":"QIANFAN-170","OBJECT_ID":"2026-124F","EPOCH":"2026-07-16T05:06:03.893184","CLASSIFICATION_TYPE":"U","MEAN_MOTION":13.94176932,"ECCENTRICITY":0.00072241,"INCLINATION":88.9998,"RA_OF_ASC_NODE":358.7738,"ARG_OF_PERICENTER":51.1019,"MEAN_ANOMALY":309.08,"EPHEMERIS_TYPE":0,"NORAD_CAT_ID":69387,"ELEMENT_SET_NO":999,"REV_AT_EPOCH":591,"BSTAR":0.000006535194,"MEAN_MOTION_DOT":2.2e-7,"MEAN_MOTION_DDOT":0},{"OBJECT_NAME":"QIANFAN-171","OBJECT_ID":"2026-124G","EPOCH":"2026-07-16T06:27:20.406816","CLASSIFICATION_TYPE":"U","MEAN_MOTION":13.94199795,"ECCENTRICITY":0.00061212,"INCLINATION":89.0006,"RA_OF_ASC_NODE":358.7644,"ARG_OF_PERICENTER":78.4017,"MEAN_ANOMALY":281.7845,"EPHEMERIS_TYPE":0,"NORAD_CAT_ID":69388,"ELEMENT_SET_NO":999,"REV_AT_EPOCH":592,"BSTAR":0.0000038392,"MEAN_MOTION_DOT":1.9e-7,"MEAN_MOTION_DDOT":0},{"OBJECT_NAME":"QIANFAN-172","OBJECT_ID":"2026-124H","EPOCH":"2026-07-16T06:29:12.711264","CLASSIFICATION_TYPE":"U","MEAN_MOTION":13.94966091,"ECCENTRICITY":0.00062224,"INCLINATION":89.0001,"RA_OF_ASC_NODE":358.7653,"ARG_OF_PERICENTER":65.9529,"MEAN_ANOMALY":294.2297,"EPHEMERIS_TYPE":0,"NORAD_CAT_ID":69389,"ELEMENT_SET_NO":999,"REV_AT_EPOCH":592,"BSTAR":0.000001180887,"MEAN_MOTION_DOT":1.5e-7,"MEAN_MOTION_DDOT":0},{"OBJECT_NAME":"QIANFAN-173","OBJECT_ID":"2026-124J","EPOCH":"2026-07-16T06:05:18.076416","CLASSIFICATION_TYPE":"U","MEAN_MOTION":13.95275533,"ECCENTRICITY":0.00071476,"INCLINATION":89.0002,"RA_OF_ASC_NODE":358.7622,"ARG_OF_PERICENTER":60.1844,"MEAN_ANOMALY":300.0042,"EPHEMERIS_TYPE":0,"NORAD_CAT_ID":69390,"ELEMENT_SET_NO":999,"REV_AT_EPOCH":592,"BSTAR":0.000009772997,"MEAN_MOTION_DOT":2.7e-7,"MEAN_MOTION_DDOT":0},{"OBJECT_NAME":"QIANFAN-174","OBJECT_ID":"2026-124K","EPOCH":"2026-07-16T07:11:35.757888","CLASSIFICATION_TYPE":"U","MEAN_MOTION":13.97969782,"ECCENTRICITY":0.00071473,"INCLINATION":88.9999,"RA_OF_ASC_NODE":358.7503,"ARG_OF_PERICENTER":61.2377,"MEAN_ANOMALY":298.9518,"EPHEMERIS_TYPE":0,"NORAD_CAT_ID":69391,"ELEMENT_SET_NO":999,"REV_AT_EPOCH":592,"BSTAR":0.000076906245,"MEAN_MOTION_DOT":0.00000123,"MEAN_MOTION_DDOT":0},{"OBJECT_NAME":"QIANFAN-175","OBJECT_ID":"2026-124L","EPOCH":"2026-07-16T05:36:37.964736","CLASSIFICATION_TYPE":"U","MEAN_MOTION":13.96239529,"ECCENTRICITY":0.00074753,"INCLINATION":89.0004,"RA_OF_ASC_NODE":358.7589,"ARG_OF_PERICENTER":67.9428,"MEAN_ANOMALY":292.2542,"EPHEMERIS_TYPE":0,"NORAD_CAT_ID":69392,"ELEMENT_SET_NO":999,"REV_AT_EPOCH":592,"BSTAR":-0.00007484072,"MEAN_MOTION_DOT":-8.9e-7,"MEAN_MOTION_DDOT":0},{"OBJECT_NAME":"QIANFAN-176","OBJECT_ID":"2026-124M","EPOCH":"2026-07-15T22:40:14.781792","CLASSIFICATION_TYPE":"U","MEAN_MOTION":13.94771866,"ECCENTRICITY":0.00075191,"INCLINATION":89.0003,"RA_OF_ASC_NODE":358.7888,"ARG_OF_PERICENTER":65.5381,"MEAN_ANOMALY":294.6578,"EPHEMERIS_TYPE":0,"NORAD_CAT_ID":69393,"ELEMENT_SET_NO":999,"REV_AT_EPOCH":587,"BSTAR":0.000017004442,"MEAN_MOTION_DOT":3.6e-7,"MEAN_MOTION_DDOT":0}]}
